NORAD_CAT_ID,OBJECT_NAME,OBJECT_TYPE,EPOCH,MEAN_MOTION,ECCENTRICITY,INCLINATION,RA_OF_ASC_NODE,ARG_OF_PERICENTER,MEAN_ANOMALY,BSTAR,MEAN_MOTION_DOT,MEAN_MOTION_DDOT,TLE_LINE0,TLE_LINE1,TLE_LINE2,SEMIMAJOR_AXIS,PERIOD,APOGEE,PERIGEE,DECAYED
55941.0,STARLINK-5914,PAYLOAD,2023-05-07 02:58:13,15.6992705,0.0004477,70.002,39.4973,282.0487,78.0207,1.3172e-05,1.371e-05,0.0,0 STARLINK-5914,1 55941U 23037AD  23127.12377058  .00001371  00000-0  13172-4 0  9997,2 55941  70.0020  39.4973 0004477 282.0487  78.0207 15.69927050  8098,6737.243,91.724,362.124,356.091,0.0
55941.0,STARLINK-5914,PAYLOAD,2023-05-07 21:19:14,15.69966767,0.0003338,70.0015,37.3484,264.8535,95.228,0.00012959,0.00015425,0.0,0 STARLINK-5914,1 55941U 23037AD  23127.88836034  .00015425  00000-0  12959-3 0  9990,2 55941  70.0015  37.3484 0003338 264.8535  95.2280 15.69966767  8554,6737.129,91.722,361.243,356.745,0.0
55941.0,STARLINK-5914,PAYLOAD,2023-05-08 03:26:15,15.6992939,0.0003633,70.0013,36.6317,269.2974,90.7805,3.101e-05,3.518e-05,0.0,0 STARLINK-5914,1 55941U 23037AD  23128.14323984  .00003518  00000-0  31010-4 0  9995,2 55941  70.0013  36.6317 0003633 269.2974  90.7805 15.69929390  8591,6737.236,91.724,361.549,356.653,0.0
55941.0,STARLINK-5914,PAYLOAD,2023-05-08 11:05:01,15.69921473,0.0003565,70.0008,35.7349,266.7927,93.2861,1.0334e-05,1.03e-05,0.0,0 STARLINK-5914,1 55941U 23037AD  23128.46182728  .00001030  00000-0  10334-4 0  9992,2 55941  70.0008  35.7349 0003565 266.7927  93.2861 15.69921473  8644,6737.259,91.724,361.525,356.722,0.0
55941.0,STARLINK-5914,PAYLOAD,2023-05-08 20:15:32,15.69927624,0.0003652,70.0023,34.6613,264.354,95.7239,4.8524e-06,3.71e-06,0.0,0 STARLINK-5914,1 55941U 23037AD  23128.84412499  .00000371  00000-0  48524-5 0  9995,2 55941  70.0023  34.6613 0003652 264.3540  95.7239 15.69927624  8364,6737.241,91.724,361.567,356.646,0.0
55941.0,STARLINK-5914,PAYLOAD,2023-05-09 03:54:17,15.69930676,0.0003626,69.9998,33.7635,271.8492,88.2288,1.8831e-05,2.053e-05,0.0,0 STARLINK-5914,1 55941U 23037AD  23129.16270709  .00002053  00000-0  18831-4 0  9993,2 55941  69.9998  33.7635 0003626 271.8492  88.2288 15.69930676  8414,6737.232,91.724,361.54,356.654,0.0
55941.0,STARLINK-5914,PAYLOAD,2023-05-10 02:50:35,15.69926167,0.0003572,70.0007,31.0782,265.821,94.2578,3.6106e-05,4.131e-05,0.0,0 STARLINK-5914,1 55941U 23037AD  23130.11846322  .00004131  00000-0  36106-4 0  9994,2 55941  70.0007  31.0782 0003572 265.8210  94.2578 15.69926167  8568,6737.245,91.724,361.517,356.704,0.0
55941.0,STARLINK-5914,PAYLOAD,2023-05-10 19:39:51,15.69930651,0.0003541,70.0007,29.1058,262.2158,97.8636,3.5597e-05,4.071e-05,0.0,0 STARLINK-5914,1 55941U 23037AD  23130.81934457  .00004071  00000-0  35597-4 0  9994,2 55941  70.0007  29.1058 0003541 262.2158  97.8636 15.69930651  8679,6737.232,91.724,361.483,356.712,0.0
55941.0,STARLINK-5914,PAYLOAD,2023-05-11 03:18:36,15.69931426,0.0003548,70.0006,28.2101,262.1986,97.8807,2.3542e-05,2.62e-05,0.0,0 STARLINK-5914,1 55941U 23037AD  23131.13792637  .00002620  00000-0  23542-4 0  9997,2 55941  70.0006  28.2101 0003548 262.1986  97.8807 15.69931426  8729,6737.23,91.724,361.486,356.705,0.0
55941.0,STARLINK-5914,PAYLOAD,2023-05-11 23:11:23,15.69938809,0.0003591,70.0001,25.8818,267.1279,92.9506,5.1562e-05,5.995e-05,0.0,0 STARLINK-5914,1 55941U 23037AD  23131.96624455  .00005995  00000-0  51562-4 0  9991,2 55941  70.0001  25.8818 0003591 267.1279  92.9506 15.69938809  9196,6737.209,91.723,361.493,356.655,0.0
55941.0,STARLINK-5914,PAYLOAD,2023-05-12 02:14:53,15.6993877,0.00038,70.0007,25.525,269.0616,91.0145,5.2187e-05,6.071e-05,0.0,0 STARLINK-5914,1 55941U 23037AD  23132.09367711  .00006071  00000-0  52187-4 0  9995,2 55941  70.0007  25.5250 0003800 269.0616  91.0145 15.69938770  8878,6737.209,91.723,361.634,356.514,0.0
55941.0,STARLINK-5914,PAYLOAD,2023-05-12 17:32:25,15.69927562,0.0003293,70.0017,23.7336,266.6823,93.3996,1.6336e-05,1.752e-05,0.0,0 STARLINK-5914,1 55941U 23037AD  23132.73084772  .00001752  00000-0  16336-4 0  9996,2 55941  70.0017  23.7336 0003293 266.6823  93.3996 15.69927562  9319,6737.241,91.724,361.325,356.888,0.0
55941.0,STARLINK-5914,PAYLOAD,2023-05-13 04:14:41,15.69925308,0.0003047,69.9998,22.4757,281.5665,78.5189,1.2655e-05,1.309e-05,0.0,0 STARLINK-5914,1 55941U 23037AD  23133.17686476  .00001309  00000-0  12655-4 0  9992,2 55941  69.9998  22.4757 0003047 281.5665  78.5189 15.69925308  9049,6737.248,91.724,361.166,357.06,0.0
55941.0,STARLINK-5914,PAYLOAD,2023-05-13 19:32:12,15.69919427,0.0003046,70.0022,20.6869,267.2348,92.8499,3.081e-07,-1.75e-06,0.0,0 STARLINK-5914,1 55941U 23037AD  23133.81403742 -.00000175  00000-0  30810-6 0  9992,2 55941  70.0022  20.6869 0003046 267.2348  92.8499 15.69919427  9141,6737.265,91.724,361.182,357.077,0.0
55941.0,STARLINK-5914,PAYLOAD,2023-05-14 01:39:12,15.69935891,0.0003423,70.0009,19.9704,265.6512,94.4292,3.1286e-05,3.553e-05,0.0,0 STARLINK-5914,1 55941U 23037AD  23134.06889710  .00003553  00000-0  31286-4 0  9991,2 55941  70.0009  19.9704 0003423 265.6512  94.4292 15.69935891  9523,6737.217,91.723,361.389,356.776,0.0
55941.0,STARLINK-5914,PAYLOAD,2023-05-14 20:00:14,15.69915882,0.0003115,70.0001,17.8199,259.8887,100.1957,-1.1342e-06,-3.49e-06,0.0,0 STARLINK-5914,1 55941U 23037AD  23134.83350641 -.00000349  00000-0 -11342-5 0  9996,2 55941  70.0001  17.8199 0003115 259.8887 100.1957 15.69915882  9305,6737.275,91.725,361.238,357.041,0.0
55941.0,STARLINK-5914,PAYLOAD,2023-05-15 00:35:30,15.69917352,0.0003301,69.9994,17.2835,268.2314,91.8504,1.1449e-05,1.164e-05,0.0,0 STARLINK-5914,1 55941U 23037AD  23135.02465729  .00001164  00000-0  11449-4 0  9993,2 55941  69.9994  17.2835 0003301 268.2314  91.8504 15.69917352  9678,6737.27,91.725,361.359,356.911,0.0
55941.0,STARLINK-5914,PAYLOAD,2023-05-15 09:46:00,15.69926033,0.0003187,70.0002,16.2095,265.6565,94.4267,2.5546e-05,2.86e-05,0.0,0 STARLINK-5914,1 55941U 23037AD  23135.40695015  .00002860  00000-0  25546-4 0  9995,2 55941  70.0002  16.2095 0003187 265.6565  94.4267 15.69926033  9737,6737.246,91.724,361.258,356.963,0.0
55941.0,STARLINK-5914,PAYLOAD,2023-05-15 17:24:46,15.69927396,0.0003238,69.998,15.3124,256.4739,103.6096,-1.1437e-06,-3.5e-06,0.0,0 STARLINK-5914,1 55941U 23037AD  23135.72553797 -.00000350  00000-0 -11437-5 0  9999,2 55941  69.9980  15.3124 0003238 256.4739 103.6096 15.69927396  9444,6737.242,91.724,361.288,356.925,0.0
55941.0,STARLINK-5914,PAYLOAD,2023-05-16 01:03:32,15.69923844,0.0002899,69.9996,14.4171,253.1145,106.9733,4.496e-06,3.28e-06,0.0,0 STARLINK-5914,1 55941U 23037AD  23136.04412317  .00000328  00000-0  44960-5 0  9997,2 55941  69.9996  14.4171 0002899 253.1145 106.9733 15.69923844  9831,6737.252,91.724,361.07,357.164,0.0
55941.0,STARLINK-5914,PAYLOAD,2023-05-16 22:28:03,15.69925589,0.0003038,69.9987,11.9099,253.21,106.8763,2.5962e-05,2.91e-05,0.0,0 STARLINK-5914,1 55941U 23037AD  23136.93615057  .00002910  00000-0  25962-4 0  9990,2 55941  69.9987  11.9099 0003038 253.2100 106.8763 15.69925589  9638,6737.247,91.724,361.159,357.065,0.0
55941.0,STARLINK-5914,PAYLOAD,2023-05-17 01:31:35,15.69905534,0.0003128,69.9977,11.5499,262.5186,97.5655,1.6192e-06,-1.8e-07,0.0,0 STARLINK-5914,1 55941U 23037AD  23137.06359977 -.00000018  00000-0  16192-5 0  9995,2 55941  69.9977  11.5499 0003128 262.5186  97.5655 15.69905534  9997,6737.304,91.725,361.277,357.062,0.0
55941.0,STARLINK-5914,PAYLOAD,2023-05-17 18:20:50,15.69919268,0.0003686,69.9978,9.5818,263.7392,96.3384,2.0959e-05,2.308e-05,0.0,0 STARLINK-5914,1 55941U 23037AD  23137.76447079  .00002308  00000-0  20959-4 0  9991,2 55941  69.9978   9.5818 0003686 263.7392  96.3384 15.69919268 10101,6737.265,91.724,361.613,356.647,0.0
55941.0,STARLINK-5914,PAYLOAD,2023-05-18 01:59:35,15.69928496,0.0003526,69.998,8.6854,260.4693,99.6104,1.1417e-05,1.16e-05,0.0,0 STARLINK-5914,1 55941U 23037AD  23138.08305295  .00001160  00000-0  11417-4 0  9994,2 55941  69.9980   8.6854 0003526 260.4693  99.6104 15.69928496  9810,6737.239,91.724,361.479,356.728,0.0
55941.0,STARLINK-5914,PAYLOAD,2023-05-19 00:55:52,15.69918635,0.0003262,69.9978,5.9982,267.9451,92.1372,2.4351e-05,2.716e-05,0.0,0 STARLINK-5914,1 55941U 23037AD  23139.03880707  .00002716  00000-0  24351-4 0  9995,2 55941  69.9978   5.9982 0003262 267.9451  92.1372 15.69918635 10305,6737.267,91.724,361.329,356.934,0.0
55941.0,STARLINK-5914,PAYLOAD,2023-05-20 01:23:54,15.69928661,0.0003649,69.9977,3.1314,268.9806,91.0972,8.4883e-06,8.08e-06,0.0,0 STARLINK-5914,1 55941U 23037AD  23140.05827074  .00000808  00000-0  84883-5 0  9994,2 55941  69.9977   3.1314 0003649 268.9806  91.0972 15.69928661 10468,6737.238,91.724,361.562,356.645,0.0
55941.0,STARLINK-5914,PAYLOAD,2023-05-20 21:16:40,15.69929499,0.0003362,69.9985,0.8018,275.5672,84.514,1.9715e-05,2.159e-05,0.0,0 STARLINK-5914,1 55941U 23037AD  23140.88658548  .00002159  00000-0  19715-4 0  9995,2 55941  69.9985   0.8018 0003362 275.5672  84.5140 15.69929499 10250,6737.236,91.724,361.366,356.836,0.0
55941.0,STARLINK-5914,PAYLOAD,2023-05-21 00:20:13,15.6989599,0.0003262,69.9976,0.4426,276.4838,83.5986,-1.7819e-05,-2.352e-05,0.0,0 STARLINK-5914,1 55941U 23037AD  23141.01404657 -.00002352  00000-0 -17819-4 0  9991,2 55941  69.9976   0.4426 0003262 276.4838  83.5986 15.69895990 10617,6737.332,91.726,361.394,356.999,0.0
55941.0,STARLINK-5914,PAYLOAD,2023-05-21 14:05:58,15.69913249,0.0003664,69.9988,358.83,277.9505,82.1275,-1.608e-05,-2.145e-05,0.0,0 STARLINK-5914,1 55941U 23037AD  23141.58748288 -.00002145  00000-0 -16080-4 0  9993,2 55941  69.9988 358.8300 0003664 277.9505  82.1275 15.69913249 10360,6737.282,91.725,361.616,356.679,0.0
55941.0,STARLINK-5914,PAYLOAD,2023-05-21 15:37:43,15.69928265,0.0002835,70.0004,358.6545,263.3858,96.7015,1.0009e-05,9.91e-06,0.0,0 STARLINK-5914,1 55941U 23037AD  23141.65119242  .00000991  00000-0  10009-4 0  9993,2 55941  70.0004 358.6545 0002835 263.3858  96.7015 15.69928265 10716,6737.239,91.724,361.014,357.194,0.0
